ONEWEB-0113             
1 48050U 21025J   21111.91667824 -.01136239  00000-0 -42772-1 0  9996
2 48050  87.4105 340.2792 0010014 142.9375 119.3197 15.30090882  1815
ONEWEB-0112             
1 48051U 21025K   21112.58334491 -.01077940  00000-0 -38564-1 0  9999
2 48051  87.4140 340.0335 0006983 149.0291 293.2974 15.31615709  5643
ONEWEB-0156             
1 48052U 21025L   21112.58334491 -.01112590  00000-0 -48498-1 0  9998
2 48052  87.4124 340.0700 0010671 161.4748  29.5425 15.25218008  5629
ONEWEB-0161             
1 48053U 21025M   21111.91667824 -.01158621  00000-0 -55068-1 0  9990
2 48053  87.3994 340.3330 0008196 153.0736 142.1329 15.21999864  1778
ONEWEB-0158             
1 48054U 21025N   21112.58334491 -.01061582  00000-0 -35498-1 0  9990
2 48054  87.4136 340.0203 0007948 155.1991 350.2478 15.33706563  5646
ONEWEB-0157             
1 48055U 21025P   21111.91667824 -.01148987  00000-0 -42565-1 0  9994
2 48055  87.4098 340.2784 0009573 141.7990 138.7870 15.30646207  1754
ONEWEB-0162             
1 48056U 21025Q   21111.91667824 -.01125552  00000-0 -54853-1 0  9991
2 48056  87.4015 340.3224 0008345 148.9250 123.7644 15.21542731  1758
ONEWEB-0155             
1 48057U 21025R   21112.16667824 -.01117376  00000-0 -34222-1 0  9993
2 48057  87.4107 340.1629 0010433 156.2130 272.1773 15.36552888  5608
ONEWEB-0149             
1 48058U 21025S   21111.91667824 -.01141341  00000-0 -49981-1 0  9993
2 48058  87.4088 340.3059 0008663 169.9454 255.2159 15.25173339  1769
ONEWEB-0148             
1 48059U 21025T   21111.91667824 -.01140171  00000-0 -45208-1 0  9992
2 48059  87.4066 340.2788 0010994 153.6868  40.6854 15.28402509  1757
ONEWEB-0160             
1 48060U 21025U   21111.91667824 -.01129838  00000-0 -51748-1 0  9997
2 48060  87.4048 340.3185 0007168 157.1117 199.3480 15.23663835  1793
ONEWEB-0163             
1 48061U 21025V   21112.16667824 -.01112584  00000-0 -33826-1 0  9993
2 48061  87.4091 340.1476 0010978 154.5843 288.2666 15.36759039  5607
ONEWEB-0159             
1 48062U 21025W   21112.58334491 -.01088597  00000-0 -40888-1 0  9993
2 48062  87.4132 340.0440 0008299 137.9468 251.6608 15.30062901  5659
ONEWEB-0164             
1 48063U 21025X   21111.91667824 -.01141629  00000-0 -45833-1 0  9990
2 48063  87.4127 340.2965 0011092 155.5397  22.9751 15.27998671  1753
ONEWEB-0167             
1 48064U 21025Y   21112.16667824 -.01135531  00000-0 -51239-1 0  9991
2 48064  87.4042 340.2216 0008385 169.7431 159.2357 15.24162863  5579
ONEWEB-0166             
1 48065U 21025Z   21112.16667824 -.01108279  00000-0 -33103-1 0  9991
2 48065  87.4106 340.1544 0011407 153.3798 303.4316 15.37288066  5608
ONEWEB-0151             
1 48066U 21025AA  21112.16667824 -.01153859  00000-0 -40748-1 0  9999
2 48066  87.4133 340.1868 0007601 145.3136 147.3019 15.32217545  5587
ONEWEB-0170             
1 48067U 21025AB  21111.91667824 -.01149611  00000-0 -46949-1 0  9992
2 48067  87.4091 340.2903 0010540 159.7092 354.7889 15.27470091  1786
ONEWEB-0168             
1 48068U 21025AC  21112.16667824 -.01161351  00000-0 -54053-1 0  9991
2 48068  87.4041 340.2268 0008045 161.5913 119.2950 15.22716835  5541
ONEWEB-0173             
1 48069U 21025AD  21112.50010417 -.01054782  00000-0 -36820-1 0  9991
2 48069  87.4129 340.0558 0007313 147.7364 205.2146 15.32335346  5641
ONEWEB-0171             
1 48070U 21025AE  21112.16667824 -.01150896  00000-0 -36530-1 0  9996
2 48070  87.4109 340.1572 0010058 158.2865 251.2327 15.35533232  5606
ONEWEB-0172             
1 48071U 21025AF  21112.16667824 -.01155682  00000-0 -41517-1 0  9996
2 48071  87.4097 340.1716 0008083 141.6033 131.2146 15.31669960  5588
ONEWEB-0174             
1 48072U 21025AG  21112.50010417 -.01008223  00000-0 -28012-1 0  9998
2 48072  87.4070 340.0210 0012855 135.1649 100.5325 15.39659102  5663
ONEWEB-0175             
1 48073U 21025AH  21112.50010417 -.00536503  00000-0 -25026-1 0  9997
2 48073  87.4137 340.1248 0008289 163.6476 171.1642 15.22325154  5621
ONEWEB-0177             
1 48074U 21025AJ  21112.50010417 -.01031735  00000-0 -29810-1 0  9991
2 48074  87.4077 340.0153 0012870 137.1868  81.7149 15.38534726  5656
ONEWEB-0178             
1 48075U 21025AK  21112.16667824 -.01117390  00000-0 -32541-1 0  9991
2 48075  87.4083 340.1438 0012822 141.6283 355.9652 15.38061533  5611
ONEWEB-0108             
1 48076U 21025AL  21112.16667824 -.01138448  00000-0 -32522-1 0  9998
2 48076  87.4098 340.1504 0012551 140.2549  17.3334 15.38705790  5606
ONEWEB-0169             
1 48077U 21025AM  21112.50010417 -.01046772  00000-0 -42136-1 0  9997
2 48077  87.4180 340.0863 0011232 148.8119  33.2365 15.27658584  5582
